[{"OBJECT_NAME":"DAMPE","OBJECT_ID":"2015-078A","EPOCH":"2026-03-09T23:55:00.527232","MEAN_MOTION":15.30502084,"ECCENTRICITY":0.00138005,"INCLINATION":97.4588,"RA_OF_ASC_NODE":73.9866,"ARG_OF_PERICENTER":70.6942,"MEAN_ANOMALY":289.579,"EPHEMERIS_TYPE":0,"CLASSIFICATION_TYPE":"U","NORAD_CAT_ID":41173,"ELEMENT_SET_NO":999,"REV_AT_EPOCH":56937,"BSTAR":9.1158173e-5,"MEAN_MOTION_DOT":2.617e-5,"MEAN_MOTION_DDOT":0},{"OBJECT_NAME":"STARLINK-30326","OBJECT_ID":"2023-122H","EPOCH":"2026-03-09T22:00:01.999584","MEAN_MOTION":15.27555681,"ECCENTRICITY":0.0001795,"INCLINATION":43.001,"RA_OF_ASC_NODE":91.2156,"ARG_OF_PERICENTER":255.5784,"MEAN_ANOMALY":30.5815,"EPHEMERIS_TYPE":0,"CLASSIFICATION_TYPE":"U","NORAD_CAT_ID":57639,"ELEMENT_SET_NO":999,"REV_AT_EPOCH":572,"BSTAR":0.0012865938,"MEAN_MOTION_DOT":0.00035286,"MEAN_MOTION_DDOT":0}]
